ALOS (DAICHI)           
1 28931U 06002A   25351.73419158  .00001110  00000+0  19545-3 0  9994
2 28931  98.1098 303.1864 0001361 113.5739 246.5610 14.69501788 61443
H-2A R/B                
1 28932U 06002B   25353.92024490  .00007481  00000+0  39322-3 0  9991
2 28932  98.2324 129.2561 0054720 152.0338 208.3851 15.14707218 82351
RESURS-DK 1             
1 29228U 06021A   25353.70982342  .00001861  00000+0  11373-3 0  9998
2 29228  69.9339  83.8253 0006864 253.3624 106.6789 15.12197286 75430
CZ-4B R/B               
1 29507U 06046C   25353.37003829  .00003364  00000+0  17662-3 0  9999
2 29507  97.5726  33.4909 0033835 183.2500 176.8518 15.15935247 47874
CZ-2C R/B               
1 31114U 07010B   25353.83441863  .00000091  00000+0  60800-4 0  9990
2 31114  98.3977 106.1282 0059399 165.3654 194.9261 14.20212534968380
COSMO-SKYMED 1          
1 31598U 07023A   25353.94599877  .00002884  00000+0  26363-3 0  9998
2 31598  97.8837 179.3924 0001581  85.2719 274.8682 14.95818364  2987
COSMOS 2428             
1 31792U 07029A   25353.74735029  .00000150  00000+0  10621-3 0  9993
2 31792  70.9365  11.1665 0004068  13.6571 346.4660 14.12892276952800
SL-16 R/B               
1 31793U 07029B   25353.39872376  .00000166  00000+0  11085-3 0  9994
2 31793  70.9756 341.1595 0001944 262.0420 209.9938 14.14815776954014
KORONAS-FOTON           
1 33504U 09003A   25353.76618623  .00007294  00000+0  17357-3 0  9991
2 33504  82.4303 358.8240 0013423  86.5085 273.7697 15.41331364933425
CZ-2C R/B               
1 37731U 11030B   25353.64177666  .00000995  00000+0  13276-3 0  9991
2 37731  97.8423 307.5959 0051376 250.5071 282.8404 14.80921965778247
H-2A R/B                
1 38341U 12025E   25353.46903780  .00001638  00000+0  15526-3 0  9993
2 38341  98.4606 309.2182 0044178 213.9012 145.9381 14.94486942736234
SHIJIAN-16 (SJ-16)      
1 39358U 13057A   25353.97830626  .00001314  00000+0  13216-3 0  9997
2 39358  74.9726 335.9581 0017833 303.0203  56.9271 14.92002862659613
