CCSDS_OMM_VERS = 2.0
CREATION_DATE  = 
ORIGINATOR     = 

OBJECT_NAME    = ALOS (DAICHI)
OBJECT_ID      = 2006-002A
CENTER_NAME    = EARTH
REF_FRAME      = TEME
TIME_SYSTEM    = UTC
MEAN_ELEMENT_THEORY = SGP/SGP4

EPOCH          = 2025-12-17T17:37:14.152512
MEAN_MOTION    = 14.69501788
ECCENTRICITY   = .00013612
INCLINATION    = 98.1098
RA_OF_ASC_NODE = 303.1864
ARG_OF_PERICENTER = 113.5739
MEAN_ANOMALY   = 246.5610

EPHEMERIS_TYPE = 0
CLASSIFICATION_TYPE = U
NORAD_CAT_ID   = 28931
ELEMENT_SET_NO = 999
REV_AT_EPOCH   = 6144
BSTAR          = .19545051E-3
MEAN_MOTION_DOT = .111E-4
MEAN_MOTION_DDOT = 0

CCSDS_OMM_VERS = 2.0
CREATION_DATE  = 
ORIGINATOR     = 

OBJECT_NAME    = H-2A R/B
OBJECT_ID      = 2006-002B
CENTER_NAME    = EARTH
REF_FRAME      = TEME
TIME_SYSTEM    = UTC
MEAN_ELEMENT_THEORY = SGP/SGP4

EPOCH          = 2025-12-19T22:05:09.159360
MEAN_MOTION    = 15.14707218
ECCENTRICITY   = .00547206
INCLINATION    = 98.2324
RA_OF_ASC_NODE = 129.2561
ARG_OF_PERICENTER = 152.0338
MEAN_ANOMALY   = 208.3851

EPHEMERIS_TYPE = 0
CLASSIFICATION_TYPE = U
NORAD_CAT_ID   = 28932
ELEMENT_SET_NO = 999
REV_AT_EPOCH   = 8235
BSTAR          = .39322433E-3
MEAN_MOTION_DOT = .7481E-4
MEAN_MOTION_DDOT = 0

CCSDS_OMM_VERS = 2.0
CREATION_DATE  = 
ORIGINATOR     = 

OBJECT_NAME    = RESURS-DK 1
OBJECT_ID      = 2006-021A
CENTER_NAME    = EARTH
REF_FRAME      = TEME
TIME_SYSTEM    = UTC
MEAN_ELEMENT_THEORY = SGP/SGP4

EPOCH          = 2025-12-19T17:02:08.743488
MEAN_MOTION    = 15.12197286
ECCENTRICITY   = .0006864
INCLINATION    = 69.9339
RA_OF_ASC_NODE = 83.8253
ARG_OF_PERICENTER = 253.3624
MEAN_ANOMALY   = 106.6789

EPHEMERIS_TYPE = 0
CLASSIFICATION_TYPE = U
NORAD_CAT_ID   = 29228
ELEMENT_SET_NO = 999
REV_AT_EPOCH   = 7543
BSTAR          = .11372674E-3
MEAN_MOTION_DOT = .1861E-4
MEAN_MOTION_DDOT = 0

CCSDS_OMM_VERS = 2.0
CREATION_DATE  = 
ORIGINATOR     = 

OBJECT_NAME    = CZ-4B R/B
OBJECT_ID      = 2006-046C
CENTER_NAME    = EARTH
REF_FRAME      = TEME
TIME_SYSTEM    = UTC
MEAN_ELEMENT_THEORY = SGP/SGP4

EPOCH          = 2025-12-19T08:52:51.308256
MEAN_MOTION    = 15.15935247
ECCENTRICITY   = .0033835
INCLINATION    = 97.5726
RA_OF_ASC_NODE = 33.4909
ARG_OF_PERICENTER = 183.2500
MEAN_ANOMALY   = 176.8518

EPHEMERIS_TYPE = 0
CLASSIFICATION_TYPE = U
NORAD_CAT_ID   = 29507
ELEMENT_SET_NO = 999
REV_AT_EPOCH   = 4787
BSTAR          = .17662E-3
MEAN_MOTION_DOT = .3364E-4
MEAN_MOTION_DDOT = 0

CCSDS_OMM_VERS = 2.0
CREATION_DATE  = 
ORIGINATOR     = 

OBJECT_NAME    = CZ-2C R/B
OBJECT_ID      = 2007-010B
CENTER_NAME    = EARTH
REF_FRAME      = TEME
TIME_SYSTEM    = UTC
MEAN_ELEMENT_THEORY = SGP/SGP4

EPOCH          = 2025-12-19T20:01:33.769632
MEAN_MOTION    = 14.20212534
ECCENTRICITY   = .00593996
INCLINATION    = 98.3977
RA_OF_ASC_NODE = 106.1282
ARG_OF_PERICENTER = 165.3654
MEAN_ANOMALY   = 194.9261

EPHEMERIS_TYPE = 0
CLASSIFICATION_TYPE = U
NORAD_CAT_ID   = 31114
ELEMENT_SET_NO = 999
REV_AT_EPOCH   = 96838
BSTAR          = .60800154E-4
MEAN_MOTION_DOT = .91E-6
MEAN_MOTION_DDOT = 0

CCSDS_OMM_VERS = 2.0
CREATION_DATE  = 
ORIGINATOR     = 

OBJECT_NAME    = COSMO-SKYMED 1
OBJECT_ID      = 2007-023A
CENTER_NAME    = EARTH
REF_FRAME      = TEME
TIME_SYSTEM    = UTC
MEAN_ELEMENT_THEORY = SGP/SGP4

EPOCH          = 2025-12-19T22:42:14.293728
MEAN_MOTION    = 14.95818364
ECCENTRICITY   = .00015817
INCLINATION    = 97.8837
RA_OF_ASC_NODE = 179.3924
ARG_OF_PERICENTER = 85.2719
MEAN_ANOMALY   = 274.8682

EPHEMERIS_TYPE = 0
CLASSIFICATION_TYPE = U
NORAD_CAT_ID   = 31598
ELEMENT_SET_NO = 999
REV_AT_EPOCH   = 298
BSTAR          = .26363351E-3
MEAN_MOTION_DOT = .2884E-4
MEAN_MOTION_DDOT = 0

CCSDS_OMM_VERS = 2.0
CREATION_DATE  = 
ORIGINATOR     = 

OBJECT_NAME    = COSMOS 2428
OBJECT_ID      = 2007-029A
CENTER_NAME    = EARTH
REF_FRAME      = TEME
TIME_SYSTEM    = UTC
MEAN_ELEMENT_THEORY = SGP/SGP4

EPOCH          = 2025-12-19T17:56:11.065056
MEAN_MOTION    = 14.12892276
ECCENTRICITY   = .00040685
INCLINATION    = 70.9365
RA_OF_ASC_NODE = 11.1665
ARG_OF_PERICENTER = 13.6571
MEAN_ANOMALY   = 346.4660

EPHEMERIS_TYPE = 0
CLASSIFICATION_TYPE = U
NORAD_CAT_ID   = 31792
ELEMENT_SET_NO = 999
REV_AT_EPOCH   = 95280
BSTAR          = .1062136E-3
MEAN_MOTION_DOT = .15E-5
MEAN_MOTION_DDOT = 0

CCSDS_OMM_VERS = 2.0
CREATION_DATE  = 
ORIGINATOR     = 

OBJECT_NAME    = SL-16 R/B
OBJECT_ID      = 2007-029B
CENTER_NAME    = EARTH
REF_FRAME      = TEME
TIME_SYSTEM    = UTC
MEAN_ELEMENT_THEORY = SGP/SGP4

EPOCH          = 2025-12-19T09:34:09.732864
MEAN_MOTION    = 14.14815776
ECCENTRICITY   = .0001944
INCLINATION    = 70.9756
RA_OF_ASC_NODE = 341.1595
ARG_OF_PERICENTER = 262.0420
MEAN_ANOMALY   = 209.9938

EPHEMERIS_TYPE = 0
CLASSIFICATION_TYPE = U
NORAD_CAT_ID   = 31793
ELEMENT_SET_NO = 999
REV_AT_EPOCH   = 95401
BSTAR          = .11085E-3
MEAN_MOTION_DOT = .166E-5
MEAN_MOTION_DDOT = 0

CCSDS_OMM_VERS = 2.0
CREATION_DATE  = 
ORIGINATOR     = 

OBJECT_NAME    = KORONAS-FOTON
OBJECT_ID      = 2009-003A
CENTER_NAME    = EARTH
REF_FRAME      = TEME
TIME_SYSTEM    = UTC
MEAN_ELEMENT_THEORY = SGP/SGP4

EPOCH          = 2025-12-19T18:23:18.490272
MEAN_MOTION    = 15.41331364
ECCENTRICITY   = .00134239
INCLINATION    = 82.4303
RA_OF_ASC_NODE = 358.8240
ARG_OF_PERICENTER = 86.5085
MEAN_ANOMALY   = 273.7697

EPHEMERIS_TYPE = 0
CLASSIFICATION_TYPE = U
NORAD_CAT_ID   = 33504
ELEMENT_SET_NO = 999
REV_AT_EPOCH   = 93342
BSTAR          = .17357018E-3
MEAN_MOTION_DOT = .7294E-4
MEAN_MOTION_DDOT = 0

CCSDS_OMM_VERS = 2.0
CREATION_DATE  = 
ORIGINATOR     = 

OBJECT_NAME    = CZ-2C R/B
OBJECT_ID      = 2011-030B
CENTER_NAME    = EARTH
REF_FRAME      = TEME
TIME_SYSTEM    = UTC
MEAN_ELEMENT_THEORY = SGP/SGP4

EPOCH          = 2025-12-19T15:24:09.503424
MEAN_MOTION    = 14.80921965
ECCENTRICITY   = .0051376
INCLINATION    = 97.8423
RA_OF_ASC_NODE = 307.5959
ARG_OF_PERICENTER = 250.5071
MEAN_ANOMALY   = 282.8404

EPHEMERIS_TYPE = 0
CLASSIFICATION_TYPE = U
NORAD_CAT_ID   = 37731
ELEMENT_SET_NO = 999
REV_AT_EPOCH   = 77824
BSTAR          = .13276E-3
MEAN_MOTION_DOT = .995E-5
MEAN_MOTION_DDOT = 0

CCSDS_OMM_VERS = 2.0
CREATION_DATE  = 
ORIGINATOR     = 

OBJECT_NAME    = H-2A R/B
OBJECT_ID      = 2012-025E
CENTER_NAME    = EARTH
REF_FRAME      = TEME
TIME_SYSTEM    = UTC
MEAN_ELEMENT_THEORY = SGP/SGP4

EPOCH          = 2025-12-19T11:15:24.865920
MEAN_MOTION    = 14.94486942
ECCENTRICITY   = .0044178
INCLINATION    = 98.4606
RA_OF_ASC_NODE = 309.2182
ARG_OF_PERICENTER = 213.9012
MEAN_ANOMALY   = 145.9381

EPHEMERIS_TYPE = 0
CLASSIFICATION_TYPE = U
NORAD_CAT_ID   = 38341
ELEMENT_SET_NO = 999
REV_AT_EPOCH   = 73623
BSTAR          = .15526E-3
MEAN_MOTION_DOT = .1638E-4
MEAN_MOTION_DDOT = 0

CCSDS_OMM_VERS = 2.0
CREATION_DATE  = 
ORIGINATOR     = 

OBJECT_NAME    = SHIJIAN-16 (SJ-16)
OBJECT_ID      = 2013-057A
CENTER_NAME    = EARTH
REF_FRAME      = TEME
TIME_SYSTEM    = UTC
MEAN_ELEMENT_THEORY = SGP/SGP4

EPOCH          = 2025-12-19T23:28:45.660864
MEAN_MOTION    = 14.92002862
ECCENTRICITY   = .0017833
INCLINATION    = 74.9726
RA_OF_ASC_NODE = 335.9581
ARG_OF_PERICENTER = 303.0203
MEAN_ANOMALY   = 56.9271

EPHEMERIS_TYPE = 0
CLASSIFICATION_TYPE = U
NORAD_CAT_ID   = 39358
ELEMENT_SET_NO = 999
REV_AT_EPOCH   = 65961
BSTAR          = .1321584E-3
MEAN_MOTION_DOT = .1314E-4
MEAN_MOTION_DDOT = 0

